0 PSLV R/B
1 38249U 12017B   13281.89377739  .00004902  00000-0  17501-3 0  4284
2 38249 097.5251 296.2736 0041246 146.4594 213.9274 15.28533286 80922
0 PSLV R/B
1 38249U 12017B   13283.20305318  .00006224  00000-0  22129-3 0  4297
2 38249 097.5244 297.5975 0041070 142.0298 218.3852 15.28553926 81128
0 PSLV R/B
1 38249U 12017B   13284.25045726  .00007747  00000-0  27451-3 0  4303
2 38249 097.5239 298.6576 0041093 138.4120 222.0259 15.28575589 81288
0 PSLV R/B
1 38249U 12017B   13285.55969477  .00008740  00000-0  30897-3 0  4318
2 38249 097.5235 299.9813 0041363 133.7070 226.7608 15.28602094 81487
0 PSLV R/B
1 38249U 12017B   13286.86891686  .00008308  00000-0  29369-3 0  4322
2 38249 097.5234 301.3023 0041270 129.1939 231.2978 15.28622960 81684
0 PSLV R/B
1 38249U 12017B   13287.91628181  .00007964  00000-0  28150-3 0  4332
2 38249 097.5236 302.3599 0041356 125.6301 234.8800 15.28638640 81847
0 PSLV R/B
1 38249U 12017B   13289.22546781  .00008407  00000-0  29673-3 0  4348
2 38249 097.5233 303.6829 0041420 121.0670 239.4646 15.28662226 82044
0 PSLV R/B
1 38249U 12017B   13290.40371502  .00009078  00000-0  31980-3 0  4357
2 38249 097.5231 304.8743 0041704 117.1407 243.4097 15.28686107 82228
0 PSLV R/B
1 38249U 12017B   13291.58194502  .00009435  00000-0  33201-3 0  4366
2 38249 097.5229 306.0648 0041701 113.0143 247.5502 15.28709773 82403
0 PSLV R/B
1 38249U 12017B   13292.89106939  .00009461  00000-0  33261-3 0  4374
2 38249 097.5227 307.3870 0041796 108.6942 251.8841 15.28734829 82609
0 PSLV R/B
1 38249U 12017B   13294.20017421  .00009138  00000-0  32114-3 0  4386
2 38249 097.5227 308.7093 0041817 104.4431 256.1454 15.28757719 82805
0 PSLV R/B
1 38249U 12017B   13295.24744425  .00008848  00000-0  31091-3 0  4393
2 38249 097.5227 309.7669 0041790 100.8661 259.7284 15.28775222 82966
